IRIDIUM 36              
1 24967U 97056C   24361.23409229  .00000982  00000+0  32272-3 0  9999
2 24967  86.3965 245.6062 0001893  86.6764 273.4650 14.37311626427374
IRIDIUM 39              
1 25042U 97069D   24361.28051624  .00001786  00000+0  46739-3 0  9991
2 25042  86.3911 285.2714 0018460 157.2959 202.9066 14.48754561423929
IRIDIUM 38              
1 25043U 97069E   24361.24796460  .00001340  00000+0  43871-3 0  9992
2 25043  86.3957 305.9377 0001519  28.9593 331.1689 14.37805633421109
IRIDIUM 42              
1 25077U 97077A   24361.25213635  .00001322  00000+0  44808-3 0  9998
2 25077  86.3961 311.8936 0001980  67.1485 292.9921 14.36065388416375
IRIDIUM 44              
1 25078U 97077B   24361.25529182  .00001280  00000+0  40096-3 0  9994
2 25078  86.3953 294.2681 0001042 139.2409 220.8868 14.39934246418816
IRIDIUM 45              
1 25104U 97082A   24361.30636690  .00032222  00000+0  14358-2 0  9990
2 25104  86.3635 131.2938 0135022 255.3886 103.2350 15.13365963425818
IRIDIUM 24              
1 25105U 97082B   24361.17183168  .00001408  00000+0  42555-3 0  9996
2 25105  86.3931 153.6466 0009568 293.9666  66.0531 14.41757897418282
IRIDIUM 51              
1 25262U 98018A   24361.27163982  .00055049  00000+0  18161-2 0  9998
2 25262  86.3906 140.4691 0114064 187.8851 172.0608 15.25061985420541
